CCSDS_OMM_VERS = 2.0
CREATION_DATE  = 
ORIGINATOR     = 

OBJECT_NAME    = SL-16 R/B
OBJECT_ID      = 1993-016B
CENTER_NAME    = EARTH
REF_FRAME      = TEME
TIME_SYSTEM    = UTC
MEAN_ELEMENT_THEORY = SGP/SGP4

EPOCH          = 2025-12-21T19:44:35.390112
MEAN_MOTION    = 14.15290365
ECCENTRICITY   = .0008029
INCLINATION    = 71.0081
RA_OF_ASC_NODE = 18.7269
ARG_OF_PERICENTER = 79.6367
MEAN_ANOMALY   = 280.5661

EPHEMERIS_TYPE = 0
CLASSIFICATION_TYPE = U
NORAD_CAT_ID   = 22566
ELEMENT_SET_NO = 999
REV_AT_EPOCH   = 69115
BSTAR          = .18911E-3
MEAN_MOTION_DOT = .321E-5
MEAN_MOTION_DDOT = 0

CCSDS_OMM_VERS = 2.0
CREATION_DATE  = 
ORIGINATOR     = 

OBJECT_NAME    = COSMOS 2242
OBJECT_ID      = 1993-024A
CENTER_NAME    = EARTH
REF_FRAME      = TEME
TIME_SYSTEM    = UTC
MEAN_ELEMENT_THEORY = SGP/SGP4

EPOCH          = 2025-12-21T11:08:16.434240
MEAN_MOTION    = 14.96138900
ECCENTRICITY   = .00155371
INCLINATION    = 82.5186
RA_OF_ASC_NODE = 341.5053
ARG_OF_PERICENTER = 202.8193
MEAN_ANOMALY   = 157.2340

EPHEMERIS_TYPE = 0
CLASSIFICATION_TYPE = U
NORAD_CAT_ID   = 22626
ELEMENT_SET_NO = 999
REV_AT_EPOCH   = 76869
BSTAR          = .14438942E-3
MEAN_MOTION_DOT = .1654E-4
MEAN_MOTION_DDOT = 0

CCSDS_OMM_VERS = 2.0
CREATION_DATE  = 
ORIGINATOR     = 

OBJECT_NAME    = SL-16 R/B
OBJECT_ID      = 1993-059B
CENTER_NAME    = EARTH
REF_FRAME      = TEME
TIME_SYSTEM    = UTC
MEAN_ELEMENT_THEORY = SGP/SGP4

EPOCH          = 2025-12-21T20:05:34.617408
MEAN_MOTION    = 14.17213912
ECCENTRICITY   = .0018415
INCLINATION    = 70.9879
RA_OF_ASC_NODE = 175.3017
ARG_OF_PERICENTER = 322.8218
MEAN_ANOMALY   = 37.1629

EPHEMERIS_TYPE = 0
CLASSIFICATION_TYPE = U
NORAD_CAT_ID   = 22803
ELEMENT_SET_NO = 999
REV_AT_EPOCH   = 66850
BSTAR          = .11348E-3
MEAN_MOTION_DOT = .181E-5
MEAN_MOTION_DDOT = 0

CCSDS_OMM_VERS = 2.0
CREATION_DATE  = 
ORIGINATOR     = 

OBJECT_NAME    = ARIANE 40 R/B
OBJECT_ID      = 1993-061H
CENTER_NAME    = EARTH
REF_FRAME      = TEME
TIME_SYSTEM    = UTC
MEAN_ELEMENT_THEORY = SGP/SGP4

EPOCH          = 2025-12-21T18:23:39.784416
MEAN_MOTION    = 14.32806910
ECCENTRICITY   = .0011376
INCLINATION    = 98.5065
RA_OF_ASC_NODE = 61.1318
ARG_OF_PERICENTER = 150.2339
MEAN_ANOMALY   = 209.9494

EPHEMERIS_TYPE = 0
CLASSIFICATION_TYPE = U
NORAD_CAT_ID   = 22830
ELEMENT_SET_NO = 999
REV_AT_EPOCH   = 68294
BSTAR          = .89084E-4
MEAN_MOTION_DOT = .2E-5
MEAN_MOTION_DDOT = 0

CCSDS_OMM_VERS = 2.0
CREATION_DATE  = 
ORIGINATOR     = 

OBJECT_NAME    = COSMOS 2278
OBJECT_ID      = 1994-023A
CENTER_NAME    = EARTH
REF_FRAME      = TEME
TIME_SYSTEM    = UTC
MEAN_ELEMENT_THEORY = SGP/SGP4

EPOCH          = 2025-12-21T15:49:35.929632
MEAN_MOTION    = 14.14348121
ECCENTRICITY   = .0007902
INCLINATION    = 71.0534
RA_OF_ASC_NODE = 338.3489
ARG_OF_PERICENTER = 163.8255
MEAN_ANOMALY   = 196.3121

EPHEMERIS_TYPE = 0
CLASSIFICATION_TYPE = U
NORAD_CAT_ID   = 23087
ELEMENT_SET_NO = 999
REV_AT_EPOCH   = 63377
BSTAR          = -.34676E-4
MEAN_MOTION_DOT = -.114E-5
MEAN_MOTION_DDOT = 0

CCSDS_OMM_VERS = 2.0
CREATION_DATE  = 
ORIGINATOR     = 

OBJECT_NAME    = SL-16 R/B
OBJECT_ID      = 1994-023B
CENTER_NAME    = EARTH
REF_FRAME      = TEME
TIME_SYSTEM    = UTC
MEAN_ELEMENT_THEORY = SGP/SGP4

EPOCH          = 2025-12-21T17:47:40.079040
MEAN_MOTION    = 14.15001010
ECCENTRICITY   = .0001895
INCLINATION    = 70.9987
RA_OF_ASC_NODE = 234.5826
ARG_OF_PERICENTER = 7.1837
MEAN_ANOMALY   = 352.9312

EPHEMERIS_TYPE = 0
CLASSIFICATION_TYPE = U
NORAD_CAT_ID   = 23088
ELEMENT_SET_NO = 999
REV_AT_EPOCH   = 63506
BSTAR          = -.99583E-4
MEAN_MOTION_DOT = -.241E-5
MEAN_MOTION_DDOT = 0

CCSDS_OMM_VERS = 2.0
CREATION_DATE  = 
ORIGINATOR     = 

OBJECT_NAME    = SL-16 R/B
OBJECT_ID      = 1994-074B
CENTER_NAME    = EARTH
REF_FRAME      = TEME
TIME_SYSTEM    = UTC
MEAN_ELEMENT_THEORY = SGP/SGP4

EPOCH          = 2025-12-21T14:43:18.547968
MEAN_MOTION    = 14.79299050
ECCENTRICITY   = .0007974
INCLINATION    = 97.7191
RA_OF_ASC_NODE = 24.5650
ARG_OF_PERICENTER = 111.4408
MEAN_ANOMALY   = 2.5313

EPHEMERIS_TYPE = 0
CLASSIFICATION_TYPE = U
NORAD_CAT_ID   = 23343
ELEMENT_SET_NO = 999
REV_AT_EPOCH   = 67570
BSTAR          = .57589E-4
MEAN_MOTION_DOT = .379E-5
MEAN_MOTION_DDOT = 0

CCSDS_OMM_VERS = 2.0
CREATION_DATE  = 
ORIGINATOR     = 

OBJECT_NAME    = SL-16 R/B
OBJECT_ID      = 1994-077B
CENTER_NAME    = EARTH
REF_FRAME      = TEME
TIME_SYSTEM    = UTC
MEAN_ELEMENT_THEORY = SGP/SGP4

EPOCH          = 2025-12-21T18:04:58.954368
MEAN_MOTION    = 14.15552875
ECCENTRICITY   = .000498
INCLINATION    = 70.9820
RA_OF_ASC_NODE = 156.4511
ARG_OF_PERICENTER = 278.1293
MEAN_ANOMALY   = 81.9265

EPHEMERIS_TYPE = 0
CLASSIFICATION_TYPE = U
NORAD_CAT_ID   = 23405
ELEMENT_SET_NO = 999
REV_AT_EPOCH   = 60520
BSTAR          = -.22339E-4
MEAN_MOTION_DOT = -.92E-6
MEAN_MOTION_DDOT = 0

CCSDS_OMM_VERS = 2.0
CREATION_DATE  = 
ORIGINATOR     = 

OBJECT_NAME    = ARIANE 40+ R/B
OBJECT_ID      = 1995-021B
CENTER_NAME    = EARTH
REF_FRAME      = TEME
TIME_SYSTEM    = UTC
MEAN_ELEMENT_THEORY = SGP/SGP4

EPOCH          = 2025-12-21T15:27:41.364000
MEAN_MOTION    = 14.39701727
ECCENTRICITY   = .0007035
INCLINATION    = 98.4640
RA_OF_ASC_NODE = 63.1254
ARG_OF_PERICENTER = 25.3593
MEAN_ANOMALY   = 96.6757

EPHEMERIS_TYPE = 0
CLASSIFICATION_TYPE = U
NORAD_CAT_ID   = 23561
ELEMENT_SET_NO = 999
REV_AT_EPOCH   = 60801
BSTAR          = .94265E-4
MEAN_MOTION_DOT = .251E-5
MEAN_MOTION_DDOT = 0

CCSDS_OMM_VERS = 2.0
CREATION_DATE  = 
ORIGINATOR     = 

OBJECT_NAME    = SL-16 R/B
OBJECT_ID      = 1995-058B
CENTER_NAME    = EARTH
REF_FRAME      = TEME
TIME_SYSTEM    = UTC
MEAN_ELEMENT_THEORY = SGP/SGP4

EPOCH          = 2025-12-21T16:27:43.977888
MEAN_MOTION    = 14.15482430
ECCENTRICITY   = .0014819
INCLINATION    = 71.0219
RA_OF_ASC_NODE = 344.0218
ARG_OF_PERICENTER = 243.6679
MEAN_ANOMALY   = 116.2922

EPHEMERIS_TYPE = 0
CLASSIFICATION_TYPE = U
NORAD_CAT_ID   = 23705
ELEMENT_SET_NO = 999
REV_AT_EPOCH   = 55681
BSTAR          = -.10538E-3
MEAN_MOTION_DOT = -.254E-5
MEAN_MOTION_DDOT = 0

CCSDS_OMM_VERS = 2.0
CREATION_DATE  = 
ORIGINATOR     = 

OBJECT_NAME    = SL-16 R/B
OBJECT_ID      = 1996-051B
CENTER_NAME    = EARTH
REF_FRAME      = TEME
TIME_SYSTEM    = UTC
MEAN_ELEMENT_THEORY = SGP/SGP4

EPOCH          = 2025-12-21T09:53:34.703808
MEAN_MOTION    = 14.12397302
ECCENTRICITY   = .00194803
INCLINATION    = 70.7595
RA_OF_ASC_NODE = 340.9265
ARG_OF_PERICENTER = 250.7405
MEAN_ANOMALY   = 109.1608

EPHEMERIS_TYPE = 0
CLASSIFICATION_TYPE = U
NORAD_CAT_ID   = 24298
ELEMENT_SET_NO = 999
REV_AT_EPOCH   = 51059
BSTAR          = .1529367E-5
MEAN_MOTION_DOT = -.47E-6
MEAN_MOTION_DDOT = 0

CCSDS_OMM_VERS = 2.0
CREATION_DATE  = 
ORIGINATOR     = 

OBJECT_NAME    = ORBVIEW 2 (SEASTAR)
OBJECT_ID      = 1997-037A
CENTER_NAME    = EARTH
REF_FRAME      = TEME
TIME_SYSTEM    = UTC
MEAN_ELEMENT_THEORY = SGP/SGP4

EPOCH          = 2025-12-21T16:45:26.079264
MEAN_MOTION    = 14.35422965
ECCENTRICITY   = .000132
INCLINATION    = 98.8461
RA_OF_ASC_NODE = 152.9984
ARG_OF_PERICENTER = 304.4696
MEAN_ANOMALY   = 55.6363

EPHEMERIS_TYPE = 0
CLASSIFICATION_TYPE = U
NORAD_CAT_ID   = 24883
ELEMENT_SET_NO = 999
REV_AT_EPOCH   = 49728
BSTAR          = .90307E-4
MEAN_MOTION_DOT = .213E-5
MEAN_MOTION_DDOT = 0

